{
  "type": "FeatureCollection",
  "features": [
    {
      "type": "Feature",
      "properties": {
        "id": "transit_ind_0",
        "name": "Rajiv Chowk Metro (Yellow/Blue)",
        "route": "Blue & Yellow Line"
      },
      "geometry": {
        "type": "Point",
        "coordinates": [
          77.2185,
          28.6328
        ]
      }
    },
    {
      "type": "Feature",
      "properties": {
        "id": "transit_ind_1",
        "name": "Hauz Khas Metro (Yellow/Magenta)",
        "route": "Magenta Line"
      },
      "geometry": {
        "type": "Point",
        "coordinates": [
          77.2064,
          28.5434
        ]
      }
    },
    {
      "type": "Feature",
      "properties": {
        "id": "transit_ind_2",
        "name": "Cyber City Rapid Metro",
        "route": "Gurugram Rapid Metro"
      },
      "geometry": {
        "type": "Point",
        "coordinates": [
          77.089,
          28.493
        ]
      }
    },
    {
      "type": "Feature",
      "properties": {
        "id": "transit_ind_3",
        "name": "Noida Sector 18 Metro",
        "route": "Blue Line"
      },
      "geometry": {
        "type": "Point",
        "coordinates": [
          77.324,
          28.57
        ]
      }
    },
    {
      "type": "Feature",
      "properties": {
        "id": "transit_ind_4",
        "name": "New Delhi Railway Station (IR / Airport Express)",
        "route": "Airport Express"
      },
      "geometry": {
        "type": "Point",
        "coordinates": [
          77.221,
          28.643
        ]
      }
    },
    {
      "type": "Feature",
      "properties": {
        "id": "transit_ind_5",
        "name": "Ghatkopar Metro & Suburban",
        "route": "Line 1 & Central Railway"
      },
      "geometry": {
        "type": "Point",
        "coordinates": [
          72.908,
          19.086
        ]
      }
    },
    {
      "type": "Feature",
      "properties": {
        "id": "transit_ind_6",
        "name": "Andheri Metro & Western Suburban",
        "route": "Line 1 & Western Railway"
      },
      "geometry": {
        "type": "Point",
        "coordinates": [
          72.847,
          19.119
        ]
      }
    },
    {
      "type": "Feature",
      "properties": {
        "id": "transit_ind_7",
        "name": "BKC Metro Station (Line 3 Aqua)",
        "route": "Line 3 Underground"
      },
      "geometry": {
        "type": "Point",
        "coordinates": [
          72.868,
          19.066
        ]
      }
    },
    {
      "type": "Feature",
      "properties": {
        "id": "transit_ind_8",
        "name": "Chhatrapati Shivaji Maharaj Terminus (CSMT)",
        "route": "Harbour / Central Main"
      },
      "geometry": {
        "type": "Point",
        "coordinates": [
          72.835,
          18.94
        ]
      }
    },
    {
      "type": "Feature",
      "properties": {
        "id": "transit_ind_9",
        "name": "Dadar Junction Intercity Interchange",
        "route": "Western & Central Main"
      },
      "geometry": {
        "type": "Point",
        "coordinates": [
          72.842,
          19.018
        ]
      }
    },
    {
      "type": "Feature",
      "properties": {
        "id": "transit_ind_10",
        "name": "Nadaprabhu Kempegowda Majestic Metro",
        "route": "Purple & Green Line Interchange"
      },
      "geometry": {
        "type": "Point",
        "coordinates": [
          77.572,
          12.978
        ]
      }
    },
    {
      "type": "Feature",
      "properties": {
        "id": "transit_ind_11",
        "name": "MG Road Metro",
        "route": "Purple Line"
      },
      "geometry": {
        "type": "Point",
        "coordinates": [
          77.606,
          12.975
        ]
      }
    },
    {
      "type": "Feature",
      "properties": {
        "id": "transit_ind_12",
        "name": "Indiranagar Metro",
        "route": "Purple Line"
      },
      "geometry": {
        "type": "Point",
        "coordinates": [
          77.638,
          12.978
        ]
      }
    },
    {
      "type": "Feature",
      "properties": {
        "id": "transit_ind_13",
        "name": "Whitefield (Kadugodi) Metro",
        "route": "Purple Line Extension"
      },
      "geometry": {
        "type": "Point",
        "coordinates": [
          77.76,
          12.996
        ]
      }
    },
    {
      "type": "Feature",
      "properties": {
        "id": "transit_ind_14",
        "name": "Silk Board Multi-Modal Interchange",
        "route": "Yellow & Blue Line"
      },
      "geometry": {
        "type": "Point",
        "coordinates": [
          77.624,
          12.917
        ]
      }
    },
    {
      "type": "Feature",
      "properties": {
        "id": "transit_ind_15",
        "name": "Ameerpet Metro Interchange",
        "route": "Red & Blue Line"
      },
      "geometry": {
        "type": "Point",
        "coordinates": [
          78.448,
          17.437
        ]
      }
    },
    {
      "type": "Feature",
      "properties": {
        "id": "transit_ind_16",
        "name": "HITEC City Metro Station",
        "route": "Blue Line"
      },
      "geometry": {
        "type": "Point",
        "coordinates": [
          78.377,
          17.449
        ]
      }
    },
    {
      "type": "Feature",
      "properties": {
        "id": "transit_ind_17",
        "name": "Raidurg Terminus",
        "route": "Blue Line Extension"
      },
      "geometry": {
        "type": "Point",
        "coordinates": [
          78.375,
          17.438
        ]
      }
    },
    {
      "type": "Feature",
      "properties": {
        "id": "transit_ind_18",
        "name": "Kalupur Railway Station Metro",
        "route": "East-West Corridor"
      },
      "geometry": {
        "type": "Point",
        "coordinates": [
          72.601,
          23.023
        ]
      }
    },
    {
      "type": "Feature",
      "properties": {
        "id": "transit_ind_19",
        "name": "Thaltej Metro Station",
        "route": "East-West Corridor"
      },
      "geometry": {
        "type": "Point",
        "coordinates": [
          72.515,
          23.051
        ]
      }
    },
    {
      "type": "Feature",
      "properties": {
        "id": "transit_ind_20",
        "name": "GIFT City Metro Hub",
        "route": "Phase 2 North Extension"
      },
      "geometry": {
        "type": "Point",
        "coordinates": [
          72.685,
          23.163
        ]
      }
    },
    {
      "type": "Feature",
      "properties": {
        "id": "transit_ind_21",
        "name": "Puratchi Thalaivar Dr. MGR Central Metro",
        "route": "Blue & Green Line"
      },
      "geometry": {
        "type": "Point",
        "coordinates": [
          80.275,
          13.082
        ]
      }
    },
    {
      "type": "Feature",
      "properties": {
        "id": "transit_ind_22",
        "name": "Guindy Metro Interchange",
        "route": "Blue Line"
      },
      "geometry": {
        "type": "Point",
        "coordinates": [
          80.212,
          13.008
        ]
      }
    },
    {
      "type": "Feature",
      "properties": {
        "id": "transit_ind_23",
        "name": "Salt Lake Sector V Metro",
        "route": "Green Line (East-West)"
      },
      "geometry": {
        "type": "Point",
        "coordinates": [
          88.431,
          22.58
        ]
      }
    },
    {
      "type": "Feature",
      "properties": {
        "id": "transit_ind_24",
        "name": "Esplanade Metro Interchange",
        "route": "Blue & Green Line"
      },
      "geometry": {
        "type": "Point",
        "coordinates": [
          88.351,
          22.564
        ]
      }
    }
  ]
}