{
  "type": "FeatureCollection",
  "features": [
    {
      "type": "Feature",
      "properties": {
        "name": "Delhi-Mumbai Expressway (NE-4)",
        "class": "motorway"
      },
      "geometry": {
        "type": "LineString",
        "coordinates": [
          [
            77.05,
            28.45
          ],
          [
            76.85,
            27.8
          ],
          [
            76.25,
            26.9
          ],
          [
            75.8,
            25.1
          ],
          [
            74.5,
            23.3
          ],
          [
            73.2,
            21.2
          ],
          [
            72.9,
            19.25
          ]
        ]
      }
    },
    {
      "type": "Feature",
      "properties": {
        "name": "Mumbai-Pune Expressway",
        "class": "motorway"
      },
      "geometry": {
        "type": "LineString",
        "coordinates": [
          [
            73.02,
            19.02
          ],
          [
            73.18,
            18.9
          ],
          [
            73.4,
            18.75
          ],
          [
            73.65,
            18.68
          ],
          [
            73.8,
            18.55
          ]
        ]
      }
    },
    {
      "type": "Feature",
      "properties": {
        "name": "Western Express Highway (Mumbai)",
        "class": "primary"
      },
      "geometry": {
        "type": "LineString",
        "coordinates": [
          [
            72.84,
            19.05
          ],
          [
            72.85,
            19.1
          ],
          [
            72.86,
            19.18
          ],
          [
            72.86,
            19.25
          ]
        ]
      }
    },
    {
      "type": "Feature",
      "properties": {
        "name": "Eastern Freeway (Mumbai)",
        "class": "primary"
      },
      "geometry": {
        "type": "LineString",
        "coordinates": [
          [
            72.83,
            18.94
          ],
          [
            72.86,
            19
          ],
          [
            72.89,
            19.05
          ]
        ]
      }
    },
    {
      "type": "Feature",
      "properties": {
        "name": "Outer Ring Road (Delhi)",
        "class": "trunk"
      },
      "geometry": {
        "type": "LineString",
        "coordinates": [
          [
            77.1,
            28.65
          ],
          [
            77.15,
            28.55
          ],
          [
            77.25,
            28.54
          ],
          [
            77.3,
            28.62
          ],
          [
            77.2,
            28.72
          ],
          [
            77.1,
            28.65
          ]
        ]
      }
    },
    {
      "type": "Feature",
      "properties": {
        "name": "Bengaluru Outer Ring Road (ORR)",
        "class": "trunk"
      },
      "geometry": {
        "type": "LineString",
        "coordinates": [
          [
            77.55,
            13.02
          ],
          [
            77.62,
            13.04
          ],
          [
            77.68,
            12.98
          ],
          [
            77.69,
            12.92
          ],
          [
            77.62,
            12.91
          ],
          [
            77.56,
            12.92
          ]
        ]
      }
    },
    {
      "type": "Feature",
      "properties": {
        "name": "Hyderabad Nehru Outer Ring Road (ORR)",
        "class": "motorway"
      },
      "geometry": {
        "type": "LineString",
        "coordinates": [
          [
            78.3,
            17.45
          ],
          [
            78.4,
            17.6
          ],
          [
            78.6,
            17.45
          ],
          [
            78.5,
            17.25
          ],
          [
            78.35,
            17.3
          ],
          [
            78.3,
            17.45
          ]
        ]
      }
    },
    {
      "type": "Feature",
      "properties": {
        "name": "SG Highway (Ahmedabad - Gandhinagar)",
        "class": "primary"
      },
      "geometry": {
        "type": "LineString",
        "coordinates": [
          [
            72.5,
            22.98
          ],
          [
            72.51,
            23.04
          ],
          [
            72.53,
            23.1
          ],
          [
            72.57,
            23.18
          ],
          [
            72.63,
            23.22
          ]
        ]
      }
    },
    {
      "type": "Feature",
      "properties": {
        "name": "Old Mahabalipuram Road (OMR / IT Corridor Chennai)",
        "class": "primary"
      },
      "geometry": {
        "type": "LineString",
        "coordinates": [
          [
            80.25,
            13
          ],
          [
            80.24,
            12.94
          ],
          [
            80.23,
            12.87
          ],
          [
            80.22,
            12.8
          ]
        ]
      }
    }
  ]
}