{
  "type": "FeatureCollection",
  "features": [
    {
      "type": "Feature",
      "properties": {
        "id": "poi_ind_0",
        "type": "financial",
        "category": "financial",
        "name": "Bandra Kurla Complex (BKC)"
      },
      "geometry": {
        "type": "Point",
        "coordinates": [
          72.8687,
          19.0657
        ]
      }
    },
    {
      "type": "Feature",
      "properties": {
        "id": "poi_ind_1",
        "type": "transit",
        "category": "transit",
        "name": "Chhatrapati Shivaji Maharaj Intl Airport"
      },
      "geometry": {
        "type": "Point",
        "coordinates": [
          72.8656,
          19.0896
        ]
      }
    },
    {
      "type": "Feature",
      "properties": {
        "id": "poi_ind_2",
        "type": "logistics",
        "category": "logistics",
        "name": "Jawaharlal Nehru Port (JNPT)"
      },
      "geometry": {
        "type": "Point",
        "coordinates": [
          72.95,
          18.95
        ]
      }
    },
    {
      "type": "Feature",
      "properties": {
        "id": "poi_ind_3",
        "type": "retail",
        "category": "retail",
        "name": "Phoenix Marketcity Kurla"
      },
      "geometry": {
        "type": "Point",
        "coordinates": [
          72.889,
          19.0863
        ]
      }
    },
    {
      "type": "Feature",
      "properties": {
        "id": "poi_ind_4",
        "type": "tech",
        "category": "tech",
        "name": "Mindspace Malad Tech Hub"
      },
      "geometry": {
        "type": "Point",
        "coordinates": [
          72.835,
          19.176
        ]
      }
    },
    {
      "type": "Feature",
      "properties": {
        "id": "poi_ind_5",
        "type": "tech",
        "category": "tech",
        "name": "Navi Mumbai Infotech Corridor"
      },
      "geometry": {
        "type": "Point",
        "coordinates": [
          73.0167,
          19.0833
        ]
      }
    },
    {
      "type": "Feature",
      "properties": {
        "id": "poi_ind_6",
        "type": "tech",
        "category": "tech",
        "name": "DLF CyberCity Gurugram"
      },
      "geometry": {
        "type": "Point",
        "coordinates": [
          77.088,
          28.495
        ]
      }
    },
    {
      "type": "Feature",
      "properties": {
        "id": "poi_ind_7",
        "type": "retail",
        "category": "retail",
        "name": "Connaught Place Commercial Core"
      },
      "geometry": {
        "type": "Point",
        "coordinates": [
          77.2167,
          28.6315
        ]
      }
    },
    {
      "type": "Feature",
      "properties": {
        "id": "poi_ind_8",
        "type": "transit",
        "category": "transit",
        "name": "Indira Gandhi Intl Airport (DEL)"
      },
      "geometry": {
        "type": "Point",
        "coordinates": [
          77.1,
          28.5562
        ]
      }
    },
    {
      "type": "Feature",
      "properties": {
        "id": "poi_ind_9",
        "type": "tech",
        "category": "tech",
        "name": "Noida Electronic City SEZ"
      },
      "geometry": {
        "type": "Point",
        "coordinates": [
          77.371,
          28.628
        ]
      }
    },
    {
      "type": "Feature",
      "properties": {
        "id": "poi_ind_10",
        "type": "retail",
        "category": "retail",
        "name": "Select CITYWALK Saket"
      },
      "geometry": {
        "type": "Point",
        "coordinates": [
          77.2185,
          28.5284
        ]
      }
    },
    {
      "type": "Feature",
      "properties": {
        "id": "poi_ind_11",
        "type": "logistics",
        "category": "logistics",
        "name": "Farrukhnagar Multimodal Logistics Hub"
      },
      "geometry": {
        "type": "Point",
        "coordinates": [
          76.82,
          28.45
        ]
      }
    },
    {
      "type": "Feature",
      "properties": {
        "id": "poi_ind_12",
        "type": "tech",
        "category": "tech",
        "name": "Manyata Tech Park"
      },
      "geometry": {
        "type": "Point",
        "coordinates": [
          77.62,
          13.045
        ]
      }
    },
    {
      "type": "Feature",
      "properties": {
        "id": "poi_ind_13",
        "type": "tech",
        "category": "tech",
        "name": "Whitefield IT & Export Zone"
      },
      "geometry": {
        "type": "Point",
        "coordinates": [
          77.7499,
          12.9716
        ]
      }
    },
    {
      "type": "Feature",
      "properties": {
        "id": "poi_ind_14",
        "type": "tech",
        "category": "tech",
        "name": "Electronic City Phase 1"
      },
      "geometry": {
        "type": "Point",
        "coordinates": [
          77.665,
          12.845
        ]
      }
    },
    {
      "type": "Feature",
      "properties": {
        "id": "poi_ind_15",
        "type": "transit",
        "category": "transit",
        "name": "Kempegowda Intl Airport (BLR)"
      },
      "geometry": {
        "type": "Point",
        "coordinates": [
          77.7066,
          13.1986
        ]
      }
    },
    {
      "type": "Feature",
      "properties": {
        "id": "poi_ind_16",
        "type": "retail",
        "category": "retail",
        "name": "Outer Ring Road (ORR) Commercial Bellandur"
      },
      "geometry": {
        "type": "Point",
        "coordinates": [
          77.68,
          12.93
        ]
      }
    },
    {
      "type": "Feature",
      "properties": {
        "id": "poi_ind_17",
        "type": "tech",
        "category": "tech",
        "name": "HITEC City Cyber Towers"
      },
      "geometry": {
        "type": "Point",
        "coordinates": [
          78.375,
          17.45
        ]
      }
    },
    {
      "type": "Feature",
      "properties": {
        "id": "poi_ind_18",
        "type": "financial",
        "category": "financial",
        "name": "Gachibowli Financial District"
      },
      "geometry": {
        "type": "Point",
        "coordinates": [
          78.348,
          17.418
        ]
      }
    },
    {
      "type": "Feature",
      "properties": {
        "id": "poi_ind_19",
        "type": "transit",
        "category": "transit",
        "name": "Rajiv Gandhi Intl Airport (HYD)"
      },
      "geometry": {
        "type": "Point",
        "coordinates": [
          78.43,
          17.24
        ]
      }
    },
    {
      "type": "Feature",
      "properties": {
        "id": "poi_ind_20",
        "type": "retail",
        "category": "retail",
        "name": "Inorbit Mall Madhapur"
      },
      "geometry": {
        "type": "Point",
        "coordinates": [
          78.388,
          17.435
        ]
      }
    },
    {
      "type": "Feature",
      "properties": {
        "id": "poi_ind_21",
        "type": "financial",
        "category": "financial",
        "name": "GIFT City International FinTech Zone"
      },
      "geometry": {
        "type": "Point",
        "coordinates": [
          72.684,
          23.161
        ]
      }
    },
    {
      "type": "Feature",
      "properties": {
        "id": "poi_ind_22",
        "type": "retail",
        "category": "retail",
        "name": "SG Highway Commercial Corridor"
      },
      "geometry": {
        "type": "Point",
        "coordinates": [
          72.505,
          23.03
        ]
      }
    },
    {
      "type": "Feature",
      "properties": {
        "id": "poi_ind_23",
        "type": "logistics",
        "category": "logistics",
        "name": "Sanand Industrial Mega Park"
      },
      "geometry": {
        "type": "Point",
        "coordinates": [
          72.38,
          22.98
        ]
      }
    },
    {
      "type": "Feature",
      "properties": {
        "id": "poi_ind_24",
        "type": "tech",
        "category": "tech",
        "name": "OMR IT Expressway Thoraipakkam"
      },
      "geometry": {
        "type": "Point",
        "coordinates": [
          80.235,
          12.94
        ]
      }
    },
    {
      "type": "Feature",
      "properties": {
        "id": "poi_ind_25",
        "type": "logistics",
        "category": "logistics",
        "name": "Sriperumbudur Auto Cluster"
      },
      "geometry": {
        "type": "Point",
        "coordinates": [
          79.94,
          12.96
        ]
      }
    },
    {
      "type": "Feature",
      "properties": {
        "id": "poi_ind_26",
        "type": "transit",
        "category": "transit",
        "name": "Chennai Intl Airport (MAA)"
      },
      "geometry": {
        "type": "Point",
        "coordinates": [
          80.17,
          12.994
        ]
      }
    },
    {
      "type": "Feature",
      "properties": {
        "id": "poi_ind_27",
        "type": "tech",
        "category": "tech",
        "name": "Salt Lake Sector V IT Hub"
      },
      "geometry": {
        "type": "Point",
        "coordinates": [
          88.433,
          22.576
        ]
      }
    },
    {
      "type": "Feature",
      "properties": {
        "id": "poi_ind_28",
        "type": "financial",
        "category": "financial",
        "name": "New Town Commercial Center"
      },
      "geometry": {
        "type": "Point",
        "coordinates": [
          88.468,
          22.585
        ]
      }
    },
    {
      "type": "Feature",
      "properties": {
        "id": "poi_ind_29",
        "type": "tech",
        "category": "tech",
        "name": "Hinjawadi Rajiv Gandhi Infotech Park"
      },
      "geometry": {
        "type": "Point",
        "coordinates": [
          73.725,
          18.595
        ]
      }
    },
    {
      "type": "Feature",
      "properties": {
        "id": "poi_ind_30",
        "type": "logistics",
        "category": "logistics",
        "name": "Chakan Auto Manufacturing Corridor"
      },
      "geometry": {
        "type": "Point",
        "coordinates": [
          73.85,
          18.76
        ]
      }
    }
  ]
}