{
  "type": "FeatureCollection",
  "features": [
    {
      "type": "Feature",
      "properties": {
        "minutes": 10,
        "label": "10 Min Catchment",
        "population": 64200
      },
      "geometry": {
        "type": "Polygon",
        "coordinates": [
          [
            [
              -97.71665,
              30.2672
            ],
            [
              -97.712342,
              30.274366
            ],
            [
              -97.711504,
              30.283062
            ],
            [
              -97.715588,
              30.291124
            ],
            [
              -97.723619,
              30.296542
            ],
            [
              -97.733298,
              30.299009
            ],
            [
              -97.7431,
              30.2996
            ],
            [
              -97.752902,
              30.299009
            ],
            [
              -97.762581,
              30.296542
            ],
            [
              -97.770612,
              30.291124
            ],
            [
              -97.774696,
              30.283062
            ],
            [
              -97.773858,
              30.274366
            ],
            [
              -97.76955,
              30.2672
            ],
            [
              -97.768718,
              30.261231
            ],
            [
              -97.767675,
              30.254862
            ],
            [
              -97.766309,
              30.247019
            ],
            [
              -97.762581,
              30.237858
            ],
            [
              -97.754591,
              30.229908
            ],
            [
              -97.7431,
              30.2267
            ],
            [
              -97.731609,
              30.229908
            ],
            [
              -97.723619,
              30.237858
            ],
            [
              -97.719891,
              30.247019
            ],
            [
              -97.718525,
              30.254862
            ],
            [
              -97.717482,
              30.261231
            ],
            [
              -97.71665,
              30.2672
            ]
          ]
        ]
      }
    },
    {
      "type": "Feature",
      "properties": {
        "minutes": 20,
        "label": "20 Min Catchment",
        "population": 215000
      },
      "geometry": {
        "type": "Polygon",
        "coordinates": [
          [
            [
              -97.68491,
              30.2672
            ],
            [
              -97.675433,
              30.282966
            ],
            [
              -97.673589,
              30.302097
            ],
            [
              -97.682573,
              30.319833
            ],
            [
              -97.700241,
              30.331752
            ],
            [
              -97.721536,
              30.33718
            ],
            [
              -97.7431,
              30.33848
            ],
            [
              -97.764664,
              30.33718
            ],
            [
              -97.785959,
              30.331752
            ],
            [
              -97.803627,
              30.319833
            ],
            [
              -97.812611,
              30.302097
            ],
            [
              -97.810767,
              30.282966
            ],
            [
              -97.80129,
              30.2672
            ],
            [
              -97.799459,
              30.254068
            ],
            [
              -97.797164,
              30.240057
            ],
            [
              -97.794159,
              30.222801
            ],
            [
              -97.785959,
              30.202648
            ],
            [
              -97.768381,
              30.185157
            ],
            [
              -97.7431,
              30.1781
            ],
            [
              -97.717819,
              30.185157
            ],
            [
              -97.700241,
              30.202648
            ],
            [
              -97.692041,
              30.222801
            ],
            [
              -97.689036,
              30.240057
            ],
            [
              -97.686741,
              30.254068
            ],
            [
              -97.68491,
              30.2672
            ]
          ]
        ]
      }
    },
    {
      "type": "Feature",
      "properties": {
        "minutes": 30,
        "label": "30 Min Catchment",
        "population": 580000
      },
      "geometry": {
        "type": "Polygon",
        "coordinates": [
          [
            [
              -97.64259,
              30.2672
            ],
            [
              -97.626221,
              30.294433
            ],
            [
              -97.623036,
              30.327478
            ],
            [
              -97.638553,
              30.358111
            ],
            [
              -97.66907,
              30.378698
            ],
            [
              -97.705854,
              30.388074
            ],
            [
              -97.7431,
              30.39032
            ],
            [
              -97.780346,
              30.388074
            ],
            [
              -97.81713,
              30.378698
            ],
            [
              -97.847647,
              30.358111
            ],
            [
              -97.863164,
              30.327478
            ],
            [
              -97.859979,
              30.294433
            ],
            [
              -97.84361,
              30.2672
            ],
            [
              -97.840448,
              30.244518
            ],
            [
              -97.836483,
              30.220318
            ],
            [
              -97.831293,
              30.190511
            ],
            [
              -97.81713,
              30.155702
            ],
            [
              -97.786767,
              30.125489
            ],
            [
              -97.7431,
              30.1133
            ],
            [
              -97.699433,
              30.125489
            ],
            [
              -97.66907,
              30.155702
            ],
            [
              -97.654907,
              30.190511
            ],
            [
              -97.649717,
              30.220318
            ],
            [
              -97.645752,
              30.244518
            ],
            [
              -97.64259,
              30.2672
            ]
          ]
        ]
      }
    }
  ]
}